{
 "generated_at": "2026-06-21T08:57:48Z",
 "sources": [
  {
   "name": "CelesTrak",
   "url": "https://celestrak.org/NORAD/elements/",
   "license": "frei verfügbar; Attribution. Ursprünglich USSPACECOM/Space-Track."
  },
  {
   "name": "GCAT (J. McDowell, planet4589.org)",
   "url": "https://planet4589.org/space/gcat/",
   "license": "CC-BY 4.0"
  }
 ],
 "satellites": [
  {
   "norad": 42063,
   "name": "SENTINEL-2B",
   "intl": "2017-013A",
   "group": "resource",
   "gcat": {
    "class": "C",
    "category": "IMG",
    "owner": "COPERN/ESA",
    "state": "I-EU"
   },
   "omm": {
    "OBJECT_NAME": "SENTINEL-2B",
    "OBJECT_ID": "2017-013A",
    "EPOCH": "2026-06-21T04:38:38.913216",
    "MEAN_MOTION": 14.30817478,
    "ECCENTRICITY": 0.000117,
    "INCLINATION": 98.5686,
    "RA_OF_ASC_NODE": 246.9118,
    "ARG_OF_PERICENTER": 89.4658,
    "MEAN_ANOMALY": 270.6659,
    "EPHEMERIS_TYPE": 0,
    "CLASSIFICATION_TYPE": "U",
    "NORAD_CAT_ID": 42063,
    "ELEMENT_SET_NO": 999,
    "REV_AT_EPOCH": 48521,
    "BSTAR": -0.000013848,
    "MEAN_MOTION_DOT": -8e-7,
    "MEAN_MOTION_DDOT": 0
   }
  },
  {
   "norad": 60989,
   "name": "SENTINEL-2C",
   "intl": "2024-157A",
   "group": "resource",
   "gcat": {
    "class": "C",
    "category": "IMG",
    "owner": "COPERN/ESA",
    "state": "I-EU"
   },
   "omm": {
    "OBJECT_NAME": "SENTINEL-2C",
    "OBJECT_ID": "2024-157A",
    "EPOCH": "2026-06-20T11:01:19.860096",
    "MEAN_MOTION": 14.30818579,
    "ECCENTRICITY": 0.0000995,
    "INCLINATION": 98.5692,
    "RA_OF_ASC_NODE": 246.195,
    "ARG_OF_PERICENTER": 83.4152,
    "MEAN_ANOMALY": 276.7144,
    "EPHEMERIS_TYPE": 0,
    "CLASSIFICATION_TYPE": "U",
    "NORAD_CAT_ID": 60989,
    "ELEMENT_SET_NO": 999,
    "REV_AT_EPOCH": 9345,
    "BSTAR": 0.000043396,
    "MEAN_MOTION_DOT": 7e-7,
    "MEAN_MOTION_DDOT": 0
   }
  },
  {
   "norad": 41335,
   "name": "SENTINEL-3A",
   "intl": "2016-011A",
   "group": "resource",
   "gcat": {
    "class": "C",
    "category": "IMG",
    "owner": "COPERN/ESA",
    "state": "I-EU"
   },
   "omm": {
    "OBJECT_NAME": "SENTINEL-3A",
    "OBJECT_ID": "2016-011A",
    "EPOCH": "2026-06-20T10:37:14.661120",
    "MEAN_MOTION": 14.26733412,
    "ECCENTRICITY": 0.0001418,
    "INCLINATION": 98.6248,
    "RA_OF_ASC_NODE": 238.7795,
    "ARG_OF_PERICENTER": 99.3701,
    "MEAN_ANOMALY": 260.764,
    "EPHEMERIS_TYPE": 0,
    "CLASSIFICATION_TYPE": "U",
    "NORAD_CAT_ID": 41335,
    "ELEMENT_SET_NO": 999,
    "REV_AT_EPOCH": 53852,
    "BSTAR": 0.000037722,
    "MEAN_MOTION_DOT": 4.8e-7,
    "MEAN_MOTION_DDOT": 0
   }
  },
  {
   "norad": 43437,
   "name": "SENTINEL-3B",
   "intl": "2018-039A",
   "group": "resource",
   "gcat": {
    "class": "C",
    "category": "IMG",
    "owner": "COPERN/ESA",
    "state": "I-EU"
   },
   "omm": {
    "OBJECT_NAME": "SENTINEL-3B",
    "OBJECT_ID": "2018-039A",
    "EPOCH": "2026-06-20T09:58:35.272992",
    "MEAN_MOTION": 14.2673554,
    "ECCENTRICITY": 0.0000727,
    "INCLINATION": 98.6248,
    "RA_OF_ASC_NODE": 238.9017,
    "ARG_OF_PERICENTER": 94.68,
    "MEAN_ANOMALY": 265.4463,
    "EPHEMERIS_TYPE": 0,
    "CLASSIFICATION_TYPE": "U",
    "NORAD_CAT_ID": 43437,
    "ELEMENT_SET_NO": 999,
    "REV_AT_EPOCH": 42458,
    "BSTAR": 0.000048499,
    "MEAN_MOTION_DOT": 7.4e-7,
    "MEAN_MOTION_DDOT": 0
   }
  },
  {
   "norad": 42969,
   "name": "SENTINEL-5P",
   "intl": "2017-064A",
   "group": "resource",
   "gcat": {
    "class": "C",
    "category": "IMG",
    "owner": "COPERN/ESA",
    "state": "I-EU"
   },
   "omm": {
    "OBJECT_NAME": "SENTINEL-5P",
    "OBJECT_ID": "2017-064A",
    "EPOCH": "2026-06-20T10:39:42.037920",
    "MEAN_MOTION": 14.19519441,
    "ECCENTRICITY": 0.0000991,
    "INCLINATION": 98.7925,
    "RA_OF_ASC_NODE": 113.5524,
    "ARG_OF_PERICENTER": 87.3098,
    "MEAN_ANOMALY": 272.8191,
    "EPHEMERIS_TYPE": 0,
    "CLASSIFICATION_TYPE": "U",
    "NORAD_CAT_ID": 42969,
    "ELEMENT_SET_NO": 999,
    "REV_AT_EPOCH": 45002,
    "BSTAR": 0.000040558,
    "MEAN_MOTION_DOT": 4.1e-7,
    "MEAN_MOTION_DDOT": 0
   }
  },
  {
   "norad": 46984,
   "name": "SENTINEL-6A",
   "intl": "2020-086A",
   "group": "resource",
   "gcat": {
    "class": "C",
    "category": "EOSCI",
    "owner": "COPERN/ESA",
    "state": "I-EU"
   },
   "omm": {
    "OBJECT_NAME": "SENTINEL-6A",
    "OBJECT_ID": "2020-086A",
    "EPOCH": "2026-06-20T06:52:41.968704",
    "MEAN_MOTION": 12.80930002,
    "ECCENTRICITY": 0.0007932,
    "INCLINATION": 66.0398,
    "RA_OF_ASC_NODE": 128.6148,
    "ARG_OF_PERICENTER": 270.1789,
    "MEAN_ANOMALY": 89.8317,
    "EPHEMERIS_TYPE": 0,
    "CLASSIFICATION_TYPE": "U",
    "NORAD_CAT_ID": 46984,
    "ELEMENT_SET_NO": 999,
    "REV_AT_EPOCH": 26072,
    "BSTAR": 0.000086498,
    "MEAN_MOTION_DOT": -4.1e-7,
    "MEAN_MOTION_DDOT": 0
   }
  },
  {
   "norad": 66514,
   "name": "SENTINEL-6B",
   "intl": "2025-264A",
   "group": "resource",
   "gcat": {
    "class": "C",
    "category": "EOSCI",
    "owner": "COPERN/ESA",
    "state": "I-EU"
   },
   "omm": {
    "OBJECT_NAME": "SENTINEL-6B",
    "OBJECT_ID": "2025-264A",
    "EPOCH": "2026-06-20T06:53:12.043680",
    "MEAN_MOTION": 12.80929983,
    "ECCENTRICITY": 0.0007997,
    "INCLINATION": 66.0399,
    "RA_OF_ASC_NODE": 128.7401,
    "ARG_OF_PERICENTER": 269.1256,
    "MEAN_ANOMALY": 90.8843,
    "EPHEMERIS_TYPE": 0,
    "CLASSIFICATION_TYPE": "U",
    "NORAD_CAT_ID": 66514,
    "ELEMENT_SET_NO": 999,
    "REV_AT_EPOCH": 2756,
    "BSTAR": 0.000073559,
    "MEAN_MOTION_DOT": -4.4e-7,
    "MEAN_MOTION_DDOT": 0
   }
  },
  {
   "norad": 28220,
   "name": "SHIYAN-1 (SY-1)",
   "intl": "2004-012A",
   "group": "resource",
   "gcat": {
    "class": null,
    "category": null,
    "owner": null,
    "state": null
   },
   "omm": {
    "OBJECT_NAME": "SHIYAN-1 (SY-1)",
    "OBJECT_ID": "2004-012A",
    "EPOCH": "2026-06-20T04:25:52.174560",
    "MEAN_MOTION": 15.33824479,
    "ECCENTRICITY": 0.00053065,
    "INCLINATION": 97.8685,
    "RA_OF_ASC_NODE": 249.448,
    "ARG_OF_PERICENTER": 22.5113,
    "MEAN_ANOMALY": 337.636,
    "EPHEMERIS_TYPE": 0,
    "CLASSIFICATION_TYPE": "U",
    "NORAD_CAT_ID": 28220,
    "ELEMENT_SET_NO": 999,
    "REV_AT_EPOCH": 21155,
    "BSTAR": 0.00034056659,
    "MEAN_MOTION_DOT": 0.00011063,
    "MEAN_MOTION_DDOT": 0
   }
  },
  {
   "norad": 28893,
   "name": "SINAH 1",
   "intl": "2005-043D",
   "group": "resource",
   "gcat": {
    "class": null,
    "category": null,
    "owner": null,
    "state": null
   },
   "omm": {
    "OBJECT_NAME": "SINAH 1",
    "OBJECT_ID": "2005-043D",
    "EPOCH": "2026-06-20T09:40:00.249888",
    "MEAN_MOTION": 14.64159377,
    "ECCENTRICITY": 0.0013138,
    "INCLINATION": 98.2865,
    "RA_OF_ASC_NODE": 305.7437,
    "ARG_OF_PERICENTER": 265.6982,
    "MEAN_ANOMALY": 94.2719,
    "EPHEMERIS_TYPE": 0,
    "CLASSIFICATION_TYPE": "U",
    "NORAD_CAT_ID": 28893,
    "ELEMENT_SET_NO": 999,
    "REV_AT_EPOCH": 10099,
    "BSTAR": 0.000051932,
    "MEAN_MOTION_DOT": 0.00000224,
    "MEAN_MOTION_DDOT": 0
   }
  },
  {
   "norad": 39418,
   "name": "SKYSAT-A",
   "intl": "2013-066C",
   "group": "resource",
   "gcat": {
    "class": "B",
    "category": "IMG",
    "owner": "SKYBOX",
    "state": "US"
   },
   "omm": {
    "OBJECT_NAME": "SKYSAT-A",
    "OBJECT_ID": "2013-066C",
    "EPOCH": "2026-06-19T16:54:18.879552",
    "MEAN_MOTION": 15.12985941,
    "ECCENTRICITY": 0.0019939,
    "INCLINATION": 97.3811,
    "RA_OF_ASC_NODE": 220.0216,
    "ARG_OF_PERICENTER": 308.191,
    "MEAN_ANOMALY": 51.7525,
    "EPHEMERIS_TYPE": 0,
    "CLASSIFICATION_TYPE": "U",
    "NORAD_CAT_ID": 39418,
    "ELEMENT_SET_NO": 999,
    "REV_AT_EPOCH": 68886,
    "BSTAR": 0.00012045578,
    "MEAN_MOTION_DOT": 0.00002071,
    "MEAN_MOTION_DDOT": 0
   }
  },
  {
   "norad": 40072,
   "name": "SKYSAT-B",
   "intl": "2014-037D",
   "group": "resource",
   "gcat": {
    "class": "B",
    "category": "IMG",
    "owner": "SKYBOX",
    "state": "US"
   },
   "omm": {
    "OBJECT_NAME": "SKYSAT-B",
    "OBJECT_ID": "2014-037D",
    "EPOCH": "2026-06-20T10:04:54.136128",
    "MEAN_MOTION": 14.88034632,
    "ECCENTRICITY": 0.000415,
    "INCLINATION": 98.384,
    "RA_OF_ASC_NODE": 130.5693,
    "ARG_OF_PERICENTER": 267.9415,
    "MEAN_ANOMALY": 92.1324,
    "EPHEMERIS_TYPE": 0,
    "CLASSIFICATION_TYPE": "U",
    "NORAD_CAT_ID": 40072,
    "ELEMENT_SET_NO": 999,
    "REV_AT_EPOCH": 64644,
    "BSTAR": 0.00011167,
    "MEAN_MOTION_DOT": 0.00000964,
    "MEAN_MOTION_DDOT": 0
   }
  },
  {
   "norad": 41601,
   "name": "SKYSAT-C1",
   "intl": "2016-040C",
   "group": "resource",
   "gcat": {
    "class": "B",
    "category": "IMG",
    "owner": "TBELLA",
    "state": "US"
   },
   "omm": {
    "OBJECT_NAME": "SKYSAT-C1",
    "OBJECT_ID": "2016-040C",
    "EPOCH": "2026-06-20T08:13:32.487168",
    "MEAN_MOTION": 15.36345796,
    "ECCENTRICITY": 0.0003195,
    "INCLINATION": 96.956,
    "RA_OF_ASC_NODE": 202.8917,
    "ARG_OF_PERICENTER": 52.2877,
    "MEAN_ANOMALY": 307.8658,
    "EPHEMERIS_TYPE": 0,
    "CLASSIFICATION_TYPE": "U",
    "NORAD_CAT_ID": 41601,
    "ELEMENT_SET_NO": 999,
    "REV_AT_EPOCH": 55835,
    "BSTAR": 0.00021549,
    "MEAN_MOTION_DOT": 0.00007564,
    "MEAN_MOTION_DDOT": 0
   }
  },
  {
   "norad": 42988,
   "name": "SKYSAT-C10",
   "intl": "2017-068B",
   "group": "resource",
   "gcat": {
    "class": "B",
    "category": "IMG",
    "owner": "PLABST",
    "state": "US"
   },
   "omm": {
    "OBJECT_NAME": "SKYSAT-C10",
    "OBJECT_ID": "2017-068B",
    "EPOCH": "2026-06-20T08:33:56.269728",
    "MEAN_MOTION": 15.3468306,
    "ECCENTRICITY": 0.0001114,
    "INCLINATION": 97.4513,
    "RA_OF_ASC_NODE": 308.2348,
    "ARG_OF_PERICENTER": 100.0018,
    "MEAN_ANOMALY": 260.1351,
    "EPHEMERIS_TYPE": 0,
    "CLASSIFICATION_TYPE": "U",
    "NORAD_CAT_ID": 42988,
    "ELEMENT_SET_NO": 999,
    "REV_AT_EPOCH": 48284,
    "BSTAR": 0.00022285,
    "MEAN_MOTION_DOT": 0.00007409,
    "MEAN_MOTION_DDOT": 0
   }
  }
 ]
}
